[{"OBJECT_NAME":"STARLINK-32306","OBJECT_ID":"2024-183M","EPOCH":"2025-10-18T19:34:32.772576","MEAN_MOTION":15.30189129,"ECCENTRICITY":0.00012995,"INCLINATION":53.1597,"RA_OF_ASC_NODE":81.2336,"ARG_OF_PERICENTER":87.6706,"MEAN_ANOMALY":272.4444,"EPHEMERIS_TYPE":0,"CLASSIFICATION_TYPE":"U","NORAD_CAT_ID":61520,"ELEMENT_SET_NO":999,"REV_AT_EPOCH":5793,"BSTAR":5.777018e-6,"MEAN_MOTION_DOT":-1.88e-6,"MEAN_MOTION_DDOT":0},{"OBJECT_NAME":"STARLINK-32297","OBJECT_ID":"2024-183N","EPOCH":"2025-10-18T19:29:58.840512","MEAN_MOTION":15.30198105,"ECCENTRICITY":0.00012649,"INCLINATION":53.1604,"RA_OF_ASC_NODE":81.2115,"ARG_OF_PERICENTER":101.4116,"MEAN_ANOMALY":258.7027,"EPHEMERIS_TYPE":0,"CLASSIFICATION_TYPE":"U","NORAD_CAT_ID":61521,"ELEMENT_SET_NO":999,"REV_AT_EPOCH":5793,"BSTAR":5.811514e-6,"MEAN_MOTION_DOT":-1.87e-6,"MEAN_MOTION_DDOT":0},{"OBJECT_NAME":"STARLINK-32260","OBJECT_ID":"2024-183P","EPOCH":"2025-10-18T22:33:31.649760","MEAN_MOTION":15.30245331,"ECCENTRICITY":0.00011888,"INCLINATION":53.1592,"RA_OF_ASC_NODE":80.586,"ARG_OF_PERICENTER":70.2967,"MEAN_ANOMALY":289.8162,"EPHEMERIS_TYPE":0,"CLASSIFICATION_TYPE":"U","NORAD_CAT_ID":61522,"ELEMENT_SET_NO":999,"REV_AT_EPOCH":5795,"BSTAR":0.00095231139,"MEAN_MOTION_DOT":0.00027991,"MEAN_MOTION_DDOT":0},{"OBJECT_NAME":"STARLINK-32305","OBJECT_ID":"2024-183Q","EPOCH":"2025-10-18T17:04:25.631328","MEAN_MOTION":15.30196146,"ECCENTRICITY":0.00011337,"INCLINATION":53.1595,"RA_OF_ASC_NODE":82.0053,"ARG_OF_PERICENTER":82.1205,"MEAN_ANOMALY":277.9925,"EPHEMERIS_TYPE":0,"CLASSIFICATION_TYPE":"U","NORAD_CAT_ID":61523,"ELEMENT_SET_NO":999,"REV_AT_EPOCH":5791,"BSTAR":3.7803754e-5,"MEAN_MOTION_DOT":7.61e-6,"MEAN_MOTION_DDOT":0},{"OBJECT_NAME":"STARLINK-32296","OBJECT_ID":"2024-183R","EPOCH":"2025-10-19T03:11:07.656000","MEAN_MOTION":15.30205085,"ECCENTRICITY":0.0001131,"INCLINATION":53.1603,"RA_OF_ASC_NODE":79.6554,"ARG_OF_PERICENTER":101.8873,"MEAN_ANOMALY":258.2254,"EPHEMERIS_TYPE":0,"CLASSIFICATION_TYPE":"U","NORAD_CAT_ID":61524,"ELEMENT_SET_NO":999,"REV_AT_EPOCH":5798,"BSTAR":-3.0874942e-5,"MEAN_MOTION_DOT":-1.274e-5,"MEAN_MOTION_DDOT":0},{"OBJECT_NAME":"STARLINK-32298","OBJECT_ID":"2024-183S","EPOCH":"2025-10-18T22:24:24.880320","MEAN_MOTION":15.30187979,"ECCENTRICITY":9.652e-5,"INCLINATION":53.1607,"RA_OF_ASC_NODE":80.5442,"ARG_OF_PERICENTER":91.088,"MEAN_ANOMALY":269.0231,"EPHEMERIS_TYPE":0,"CLASSIFICATION_TYPE":"U","NORAD_CAT_ID":61525,"ELEMENT_SET_NO":999,"REV_AT_EPOCH":5795,"BSTAR":1.190367e-5,"MEAN_MOTION_DOT":-6.0e-8,"MEAN_MOTION_DDOT":0},{"OBJECT_NAME":"STARLINK-32293","OBJECT_ID":"2024-183T","EPOCH":"2025-10-19T03:02:11.852448","MEAN_MOTION":15.30166658,"ECCENTRICITY":0.00011347,"INCLINATION":53.1598,"RA_OF_ASC_NODE":80.3244,"ARG_OF_PERICENTER":73.2209,"MEAN_ANOMALY":286.8916,"EPHEMERIS_TYPE":0,"CLASSIFICATION_TYPE":"U","NORAD_CAT_ID":61526,"ELEMENT_SET_NO":999,"REV_AT_EPOCH":5797,"BSTAR":-0.00018331814,"MEAN_MOTION_DOT":-5.779e-5,"MEAN_MOTION_DDOT":0},{"OBJECT_NAME":"STARLINK-32313","OBJECT_ID":"2024-183U","EPOCH":"2025-10-19T02:53:03.252192","MEAN_MOTION":15.30206598,"ECCENTRICITY":0.00012048,"INCLINATION":53.1586,"RA_OF_ASC_NODE":80.2846,"ARG_OF_PERICENTER":87.7666,"MEAN_ANOMALY":272.3473,"EPHEMERIS_TYPE":0,"CLASSIFICATION_TYPE":"U","NORAD_CAT_ID":61527,"ELEMENT_SET_NO":999,"REV_AT_EPOCH":5797,"BSTAR":0.00020607395,"MEAN_MOTION_DOT":5.75e-5,"MEAN_MOTION_DDOT":0},{"OBJECT_NAME":"STARLINK-32319","OBJECT_ID":"2024-183V","EPOCH":"2025-10-19T03:00:39.046752","MEAN_MOTION":15.30199152,"ECCENTRICITY":0.00011153,"INCLINATION":53.1608,"RA_OF_ASC_NODE":80.319,"ARG_OF_PERICENTER":88.597,"MEAN_ANOMALY":271.5158,"EPHEMERIS_TYPE":0,"CLASSIFICATION_TYPE":"U","NORAD_CAT_ID":61528,"ELEMENT_SET_NO":999,"REV_AT_EPOCH":5797,"BSTAR":2.4578798e-5,"MEAN_MOTION_DOT":3.69e-6,"MEAN_MOTION_DDOT":0},{"OBJECT_NAME":"STARLINK-32351","OBJECT_ID":"2024-183W","EPOCH":"2025-10-18T16:45:16.123392","MEAN_MOTION":15.30202526,"ECCENTRICITY":0.00012134,"INCLINATION":53.1587,"RA_OF_ASC_NODE":79.1028,"ARG_OF_PERICENTER":88.5487,"MEAN_ANOMALY":271.5652,"EPHEMERIS_TYPE":0,"CLASSIFICATION_TYPE":"U","NORAD_CAT_ID":61529,"ELEMENT_SET_NO":999,"REV_AT_EPOCH":5795,"BSTAR":6.4832718e-5,"MEAN_MOTION_DOT":1.562e-5,"MEAN_MOTION_DDOT":0},{"OBJECT_NAME":"STARLINK-32261","OBJECT_ID":"2024-183X","EPOCH":"2025-10-19T02:37:51.343392","MEAN_MOTION":15.30203758,"ECCENTRICITY":9.893e-5,"INCLINATION":53.1598,"RA_OF_ASC_NODE":80.2343,"ARG_OF_PERICENTER":79.9775,"MEAN_ANOMALY":280.1337,"EPHEMERIS_TYPE":0,"CLASSIFICATION_TYPE":"U","NORAD_CAT_ID":61530,"ELEMENT_SET_NO":999,"REV_AT_EPOCH":5797,"BSTAR":4.3279247e-5,"MEAN_MOTION_DOT":9.23e-6,"MEAN_MOTION_DDOT":0},{"OBJECT_NAME":"STARLINK-32358","OBJECT_ID":"2024-183Y","EPOCH":"2025-10-18T19:57:19.387296","MEAN_MOTION":15.30203269,"ECCENTRICITY":8.09e-5,"INCLINATION":53.1596,"RA_OF_ASC_NODE":81.3415,"ARG_OF_PERICENTER":67.8139,"MEAN_ANOMALY":292.2948,"EPHEMERIS_TYPE":0,"CLASSIFICATION_TYPE":"U","NORAD_CAT_ID":61531,"ELEMENT_SET_NO":999,"REV_AT_EPOCH":5793,"BSTAR":3.7782388e-5,"MEAN_MOTION_DOT":7.6e-6,"MEAN_MOTION_DDOT":0},{"OBJECT_NAME":"STARLINK-11354 [DTC]","OBJECT_ID":"2024-184A","EPOCH":"2025-10-19T01:45:15.695712","MEAN_MOTION":15.69751574,"ECCENTRICITY":8.555e-5,"INCLINATION":53.1583,"RA_OF_ASC_NODE":214.4719,"ARG_OF_PERICENTER":90.2311,"MEAN_ANOMALY":269.8805,"EPHEMERIS_TYPE":0,"CLASSIFICATION_TYPE":"U","NORAD_CAT_ID":61532,"ELEMENT_SET_NO":999,"REV_AT_EPOCH":5817,"BSTAR":1.8142612e-5,"MEAN_MOTION_DOT":1.614e-5,"MEAN_MOTION_DDOT":0},{"OBJECT_NAME":"STARLINK-11323 [DTC]","OBJECT_ID":"2024-184B","EPOCH":"2025-10-19T01:31:09.858720","MEAN_MOTION":15.6972318,"ECCENTRICITY":0.00012134,"INCLINATION":53.1575,"RA_OF_ASC_NODE":214.406,"ARG_OF_PERICENTER":72.4696,"MEAN_ANOMALY":287.6454,"EPHEMERIS_TYPE":0,"CLASSIFICATION_TYPE":"U","NORAD_CAT_ID":61533,"ELEMENT_SET_NO":999,"REV_AT_EPOCH":5817,"BSTAR":3.4586444e-5,"MEAN_MOTION_DOT":3.605e-5,"MEAN_MOTION_DDOT":0},{"OBJECT_NAME":"STARLINK-11338 [DTC]","OBJECT_ID":"2024-184C","EPOCH":"2025-10-19T01:38:13.661952","MEAN_MOTION":15.69723383,"ECCENTRICITY":0.00012485,"INCLINATION":53.1596,"RA_OF_ASC_NODE":214.4385,"ARG_OF_PERICENTER":57.1146,"MEAN_ANOMALY":302.9991,"EPHEMERIS_TYPE":0,"CLASSIFICATION_TYPE":"U","NORAD_CAT_ID":61534,"ELEMENT_SET_NO":999,"REV_AT_EPOCH":5817,"BSTAR":1.0231032e-5,"MEAN_MOTION_DOT":6.51e-6,"MEAN_MOTION_DDOT":0},{"OBJECT_NAME":"STARLINK-11362 [DTC]","OBJECT_ID":"2024-184D","EPOCH":"2025-10-19T01:17:02.202144","MEAN_MOTION":15.69715054,"ECCENTRICITY":0.00014361,"INCLINATION":53.1593,"RA_OF_ASC_NODE":214.3396,"ARG_OF_PERICENTER":101.4648,"MEAN_ANOMALY":258.6531,"EPHEMERIS_TYPE":0,"CLASSIFICATION_TYPE":"U","NORAD_CAT_ID":61535,"ELEMENT_SET_NO":999,"REV_AT_EPOCH":5817,"BSTAR":2.3915007e-5,"MEAN_MOTION_DOT":2.31e-5,"MEAN_MOTION_DDOT":0},{"OBJECT_NAME":"STARLINK-11295 [DTC]","OBJECT_ID":"2024-184E","EPOCH":"2025-10-19T01:24:05.870592","MEAN_MOTION":15.69723418,"ECCENTRICITY":0.00011295,"INCLINATION":53.1597,"RA_OF_ASC_NODE":214.3727,"ARG_OF_PERICENTER":89.1073,"MEAN_ANOMALY":271.0074,"EPHEMERIS_TYPE":0,"CLASSIFICATION_TYPE":"U","NORAD_CAT_ID":61536,"ELEMENT_SET_NO":999,"REV_AT_EPOCH":5817,"BSTAR":1.1870825e-5,"MEAN_MOTION_DOT":8.5e-6,"MEAN_MOTION_DDOT":0},{"OBJECT_NAME":"STARLINK-11331 [DTC]","OBJECT_ID":"2024-184F","EPOCH":"2025-10-19T01:09:58.438656","MEAN_MOTION":15.69717469,"ECCENTRICITY":9.994e-5,"INCLINATION":53.1589,"RA_OF_ASC_NODE":214.3089,"ARG_OF_PERICENTER":98.5119,"MEAN_ANOMALY":261.6012,"EPHEMERIS_TYPE":0,"CLASSIFICATION_TYPE":"U","NORAD_CAT_ID":61537,"ELEMENT_SET_NO":999,"REV_AT_EPOCH":5817,"BSTAR":5.8577e-6,"MEAN_MOTION_DOT":1.21e-6,"MEAN_MOTION_DDOT":0},{"OBJECT_NAME":"STARLINK-11325 [DTC]","OBJECT_ID":"2024-184G","EPOCH":"2025-10-19T01:02:54.600864","MEAN_MOTION":15.69717878,"ECCENTRICITY":0.00013769,"INCLINATION":53.1599,"RA_OF_ASC_NODE":214.2753,"ARG_OF_PERICENTER":107.582,"MEAN_ANOMALY":252.5348,"EPHEMERIS_TYPE":0,"CLASSIFICATION_TYPE":"U","NORAD_CAT_ID":61538,"ELEMENT_SET_NO":999,"REV_AT_EPOCH":5817,"BSTAR":2.429686e-6,"MEAN_MOTION_DOT":-2.95e-6,"MEAN_MOTION_DDOT":0},{"OBJECT_NAME":"STARLINK-11332 [DTC]","OBJECT_ID":"2024-184H","EPOCH":"2025-10-19T00:55:51.593376","MEAN_MOTION":15.69716978,"ECCENTRICITY":0.00023075,"INCLINATION":53.158,"RA_OF_ASC_NODE":214.2634,"ARG_OF_PERICENTER":56.1179,"MEAN_ANOMALY":304.0058,"EPHEMERIS_TYPE":0,"CLASSIFICATION_TYPE":"U","NORAD_CAT_ID":61539,"ELEMENT_SET_NO":999,"REV_AT_EPOCH":5817,"BSTAR":2.3488576e-5,"MEAN_MOTION_DOT":2.257e-5,"MEAN_MOTION_DDOT":0},{"OBJECT_NAME":"STARLINK-11350 [DTC]","OBJECT_ID":"2024-184J","EPOCH":"2025-10-19T02:20:29.759424","MEAN_MOTION":15.69691897,"ECCENTRICITY":0.00012908,"INCLINATION":53.1586,"RA_OF_ASC_NODE":213.8976,"ARG_OF_PERICENTER":76.8329,"MEAN_ANOMALY":283.2833,"EPHEMERIS_TYPE":0,"CLASSIFICATION_TYPE":"U","NORAD_CAT_ID":61540,"ELEMENT_SET_NO":999,"REV_AT_EPOCH":5818,"BSTAR":-1.1891845e-5,"MEAN_MOTION_DOT":-2.028e-5,"MEAN_MOTION_DDOT":0},{"OBJECT_NAME":"STARLINK-11357 [DTC]","OBJECT_ID":"2024-184K","EPOCH":"2025-10-19T02:13:34.609152","MEAN_MOTION":15.69696323,"ECCENTRICITY":0.00012717,"INCLINATION":53.1602,"RA_OF_ASC_NODE":214.5971,"ARG_OF_PERICENTER":77.341,"MEAN_ANOMALY":282.775,"EPHEMERIS_TYPE":0,"CLASSIFICATION_TYPE":"U","NORAD_CAT_ID":61541,"ELEMENT_SET_NO":999,"REV_AT_EPOCH":5817,"BSTAR":-2.9270649e-5,"MEAN_MOTION_DOT":-4.131e-5,"MEAN_MOTION_DDOT":0},{"OBJECT_NAME":"STARLINK-11322 [DTC]","OBJECT_ID":"2024-184L","EPOCH":"2025-10-19T02:06:28.273536","MEAN_MOTION":15.69740757,"ECCENTRICITY":0.00013454,"INCLINATION":53.1587,"RA_OF_ASC_NODE":214.5645,"ARG_OF_PERICENTER":76.2305,"MEAN_ANOMALY":283.8862,"EPHEMERIS_TYPE":0,"CLASSIFICATION_TYPE":"U","NORAD_CAT_ID":61542,"ELEMENT_SET_NO":999,"REV_AT_EPOCH":5923,"BSTAR":6.7106266e-5,"MEAN_MOTION_DOT":7.558e-5,"MEAN_MOTION_DDOT":0}]
